[{"OBJECT_NAME":"CINEMA","OBJECT_ID":"2012-048G","EPOCH":"2026-03-09T23:21:38.910528","MEAN_MOTION":15.41758997,"ECCENTRICITY":0.00644529,"INCLINATION":64.645,"RA_OF_ASC_NODE":61.8658,"ARG_OF_PERICENTER":204.5071,"MEAN_ANOMALY":155.2999,"EPHEMERIS_TYPE":0,"CLASSIFICATION_TYPE":"U","NORAD_CAT_ID":38764,"ELEMENT_SET_NO":999,"REV_AT_EPOCH":10191,"BSTAR":0.00076174658,"MEAN_MOTION_DOT":0.0003483,"MEAN_MOTION_DDOT":0},{"OBJECT_NAME":"STARLINK-34415","OBJECT_ID":"2025-137AA","EPOCH":"2026-03-09T22:34:33.750624","MEAN_MOTION":15.30196215,"ECCENTRICITY":8.355e-5,"INCLINATION":53.1601,"RA_OF_ASC_NODE":334.0458,"ARG_OF_PERICENTER":79.8763,"MEAN_ANOMALY":280.2332,"EPHEMERIS_TYPE":0,"CLASSIFICATION_TYPE":"U","NORAD_CAT_ID":64618,"ELEMENT_SET_NO":999,"REV_AT_EPOCH":4077,"BSTAR":0.0010909069,"MEAN_MOTION_DOT":0.00032086,"MEAN_MOTION_DDOT":0}]
